[
    {
        "name": "NOAA 15",
        "first tle line": "1 25338U 98030A   25220.13074022  .00000172  00000+0  88342-4 0  9999",
        "second tle line": "2 25338  98.5338 243.8235 0010291 178.3118 181.8100 14.27008357416892"
    },
    {
        "name": "NOAA 18",
        "first tle line": "1 28654U 05018A   25220.21878432  .00000086  00000+0  69135-4 0  9996",
        "second tle line": "2 28654  98.8406 299.0202 0013468 323.8003  36.2257 14.13625036 42177"
    },
    {
        "name": "NOAA 19",
        "first tle line": "1 33591U 09005A   25218.60666389  .00000053  00000+0  52302-4 0  9990",
        "second tle line": "2 33591  98.9940 283.6279 0013566 195.2989 164.7775 14.13394947850301"
    },
    {
        "name": "NOAA 20 (JPSS-1)",
        "first tle line": "1 43013U 17073A   25220.11728887  .00000022  00000+0  31144-4 0  9992",
        "second tle line": "2 43013  98.7414 157.9295 0002039  96.2417 263.8991 14.19550275400053"
    },
    {
        "name": "NOAA 21 (JPSS-2)",
        "first tle line": "1 54234U 22150A   25220.08280212  .00000037  00000+0  38344-4 0  9997",
        "second tle line": "2 54234  98.7277 158.0993 0002118  35.8717 324.2601 14.19548873142126"
    },
    {
        "name": "METEOR-M 2",
        "first tle line": "1 40069U 14037A   25220.24728766  .00000111  00000+0  69842-4 0  9992",
        "second tle line": "2 40069  98.4724 202.7805 0004872 216.8511 143.2333 14.21316371574862"
    },
    {
        "name": "METEOR-M2 2",
        "first tle line": "1 44387U 19038A   25220.21335922  .00000078  00000+0  53713-4 0  9992",
        "second tle line": "2 44387  98.8791 198.4944 0001305 146.8331 213.2929 14.24222297316748"
    }
]